
# Worst residual: 3.59 km
# MJD 58977.000000 (2020 May  8  0:00)
1967-040A
1 99999U 67040A   20129.49919926  .00000000  00000-0  00000-0 0  7229
2 99999 025.3482 040.5557 4722797 199.9319 240.3341 00.21501021    05

# Worst residual: 29.27 km
# MJD 58978.000000 (2020 May  9  0:00)
1967-040A
1 99999U 67040A   20130.49919926  .00000000  00000-0  00000-0 0  7221
2 99999 025.3609 040.5733 4729889 199.8226 317.8657 00.21452491    03

# Worst residual: 37.76 km
# MJD 58979.000000 (2020 May 10  0:00)
1967-040A
1 99999U 67040A   20131.49919926  .00000000  00000-0  00000-0 0  7222
2 99999 025.3557 040.5738 4743009 200.1624 034.8374 00.21381550    07

# Worst residual: 15.46 km
# MJD 58980.000000 (2020 May 11  0:00)
1967-040A
1 99999U 67040A   20132.49919926  .00000000  00000-0  00000-0 0  7223
2 99999 025.3713 040.5627 4717508 200.0100 112.5772 00.21488404    03

# Worst residual: 1.10 km
# MJD 58981.000000 (2020 May 12  0:00)
1967-040A
1 99999U 67040A   20133.49919926  .00000000  00000-0  00000-0 0  7224
2 99999 025.3810 040.5618 4715002 199.9581 190.0793 00.21496014    07

# Worst residual: 1.01 km
# MJD 58982.000000 (2020 May 13  0:00)
1967-040A
1 99999U 67040A   20134.49919926  .00000000  00000-0  00000-0 0  7225
2 99999 025.3926 040.5623 4713125 199.9815 267.3777 00.21493249    02

# Worst residual: 9.94 km
# MJD 58983.000000 (2020 May 14  0:00)
1967-040A
1 99999U 67040A   20135.49919926  .00000000  00000-0  00000-0 0  7226
2 99999 025.4021 040.5797 4715424 199.9989 344.6985 00.21485713    04

# Worst residual: 6.19 km
# MJD 58984.000000 (2020 May 15  0:00)
1967-040A
1 99999U 67040A   20136.49919926  .00000000  00000-0  00000-0 0  7227
2 99999 025.4089 040.5562 4714994 200.1280 061.9291 00.21477116    05

# Worst residual: 6.09 km
# MJD 58985.000000 (2020 May 16  0:00)
1967-040A
1 99999U 67040A   20137.49919926  .00000000  00000-0  00000-0 0  7228
2 99999 025.4314 040.5448 4720263 200.0293 139.4088 00.21511934    00

# Worst residual: 10.21 km
# MJD 58986.000000 (2020 May 17  0:00)
1967-040A
1 99999U 67040A   20138.49919926  .00000000  00000-0  00000-0 0  7229
2 99999 025.4421 040.5429 4719603 199.9592 217.0164 00.21511680    08

# Worst residual: 32.85 km
# MJD 58987.000000 (2020 May 18  0:00)
1967-040A
1 99999U 67040A   20139.49919926  .00000000  00000-0  00000-0 0  7220
2 99999 025.4517 040.5416 4721694 199.6930 294.8462 00.21438280    04

# Worst residual: 45.59 km
# MJD 58988.000000 (2020 May 19  0:00)
1967-040A
1 99999U 67040A   20140.49919926  .00000000  00000-0  00000-0 0  7222
2 99999 025.4453 040.5614 4739644 199.9169 011.9457 00.21397254    01

# Worst residual: 5.22 km
# MJD 58989.000000 (2020 May 20  0:00)
1967-040A
1 99999U 67040A   20141.49919926  .00000000  00000-0  00000-0 0  7223
2 99999 025.4640 040.5164 4715968 200.0105 089.3643 00.21486685    09

# Worst residual: 17.25 km
# MJD 58990.000000 (2020 May 21  0:00)
1967-040A
1 99999U 67040A   20142.49919926  .00000000  00000-0  00000-0 0  7224
2 99999 025.5286 040.5107 4715231 200.2249 166.1972 00.21457285    00

# Worst residual: 10.71 km
# MJD 58991.000000 (2020 May 22  0:00)
1967-040A
1 99999U 67040A   20143.49919926  .00000000  00000-0  00000-0 0  7225
2 99999 025.5924 040.5722 4725802 200.4238 242.9329 00.21493224    09

# Worst residual: 38.36 km
# MJD 58992.000000 (2020 May 23  0:00)
1967-040A
1 99999U 67040A   20144.49919926  .00000000  00000-0  00000-0 0  7226
2 99999 025.6111 040.6155 4743027 200.3556 320.4889 00.21452575    07

# Worst residual: 45.55 km
# MJD 58993.000000 (2020 May 24  0:00)
1967-040A
1 99999U 67040A   20145.49919926  .00000000  00000-0  00000-0 0  7227
2 99999 025.6009 040.6146 4756121 200.7763 037.4225 00.21374075    03

# Worst residual: 17.68 km
# MJD 58994.000000 (2020 May 25  0:00)
1967-040A
1 99999U 67040A   20146.49919926  .00000000  00000-0  00000-0 0  7228
2 99999 025.6202 040.6024 4730217 200.5169 115.3736 00.21515011    09

# Worst residual: 6.55 km
# MJD 58995.000000 (2020 May 26  0:00)
1967-040A
1 99999U 67040A   20147.49919926  .00000000  00000-0  00000-0 0  7229
2 99999 025.6286 040.6013 4725734 200.4047 193.1249 00.21524386    09

# Worst residual: 11.11 km
# MJD 58996.000000 (2020 May 27  0:00)
1967-040A
1 99999U 67040A   20148.49919926  .00000000  00000-0  00000-0 0  7220
2 99999 025.6367 040.5933 4708590 200.3849 270.4395 00.21493220    02

# Worst residual: 4.71 km
# MJD 58997.000000 (2020 May 28  0:00)
1967-040A
1 99999U 67040A   20149.49919926  .00000000  00000-0  00000-0 0  7221
2 99999 025.6464 040.5878 4697524 200.4175 347.6471 00.21515855    06

# Worst residual: 2.13 km
# MJD 58998.000000 (2020 May 29  0:00)
1967-040A
1 99999U 67040A   20150.49919926  .00000000  00000-0  00000-0 0  7223
2 99999 025.6545 040.5787 4700967 200.4902 064.9314 00.21485614    03

# Worst residual: 1.48 km
# MJD 58999.000000 (2020 May 30  0:00)
1967-040A
1 99999U 67040A   20151.49919926  .00000000  00000-0  00000-0 0  7224
2 99999 025.6664 040.5772 4702612 200.4805 142.2720 00.21496302    07

# Worst residual: 6.51 km
# MJD 59000.000000 (2020 May 31  0:00)
1967-040A
1 99999U 67040A   20152.49919926  .00000000  00000-0  00000-0 0  7225
2 99999 025.6797 040.5782 4705389 200.4824 219.6539 00.21502329    04

# Worst residual: 29.50 km
# MJD 59001.000000 (2020 Jun  1  0:00)
1967-040A
1 99999U 67040A   20153.49919926  .00000000  00000-0  00000-0 0  7226
2 99999 025.6930 040.5913 4713728 200.3176 297.3515 00.21457913    09

# Worst residual: 41.41 km
# MJD 59002.000000 (2020 Jun  2  0:00)
1967-040A
1 99999U 67040A   20154.49919926  .00000000  00000-0  00000-0 0  7227
2 99999 025.6862 040.6119 4729714 200.5050 014.5227 00.21416799    03

# Worst residual: 7.33 km
# MJD 59003.000000 (2020 Jun  3  0:00)
1967-040A
1 99999U 67040A   20155.49919926  .00000000  00000-0  00000-0 0  7228
2 99999 025.7021 040.5693 4710271 200.5413 092.0012 00.21500930    02

# Worst residual: 6.78 km
# MJD 59004.000000 (2020 Jun  4  0:00)
1967-040A
1 99999U 67040A   20156.49919926  .00000000  00000-0  00000-0 0  7229
2 99999 025.7094 040.5673 4711453 200.5794 169.2971 00.21503785    07

# Worst residual: 7.20 km
# MJD 59005.000000 (2020 Jun  5  0:00)
1967-040A
1 99999U 67040A   20157.49919926  .00000000  00000-0  00000-0 0  7220
2 99999 025.7169 040.5621 4710648 200.7125 246.4024 00.21511538    00

# Worst residual: 24.24 km
# MJD 59006.000000 (2020 Jun  6  0:00)
1967-040A
1 99999U 67040A   20158.49919926  .00000000  00000-0  00000-0 0  7221
2 99999 025.7289 040.5753 4714274 200.6781 323.8475 00.21485605    00

# Worst residual: 40.00 km
# MJD 59007.000000 (2020 Jun  7  0:00)
1967-040A
1 99999U 67040A   20159.49919926  .00000000  00000-0  00000-0 0  7222
2 99999 025.7321 040.5648 4728493 201.0072 040.8562 00.21374537    00

# Worst residual: 17.42 km
# MJD 59008.000000 (2020 Jun  8  0:00)
1967-040A
1 99999U 67040A   20160.49919926  .00000000  00000-0  00000-0 0  7224
2 99999 025.7424 040.5697 4704250 200.7813 118.6678 00.21489232    03
